NORAD_CAT_ID,OBJECT_NAME,OBJECT_TYPE,EPOCH,MEAN_MOTION,ECCENTRICITY,INCLINATION,RA_OF_ASC_NODE,ARG_OF_PERICENTER,MEAN_ANOMALY,BSTAR,MEAN_MOTION_DOT,MEAN_MOTION_DDOT,TLE_LINE0,TLE_LINE1,TLE_LINE2,SEMIMAJOR_AXIS,PERIOD,APOGEE,PERIGEE,DECAYED
53251.0,STARLINK-4129,PAYLOAD,2024-06-16 23:08:36,15.0883661,0.0001566,53.2168,145.5569,92.2308,267.8863,-4.7501e-08,-2.89e-06,0.0,0 STARLINK-4129,1 53251U 22086K   24168.96430587 -.00000289  00000-0 -47501-7 0  9992,2 53251  53.2168 145.5569 0001566  92.2308 267.8863 15.08836610105846,6917.891,95.438,540.839,538.672,0.0
53251.0,STARLINK-4129,PAYLOAD,2024-06-17 15:02:27,15.08836968,0.0001406,53.2176,142.5851,93.7065,266.4088,1.209e-05,-9.6e-07,0.0,0 STARLINK-4129,1 53251U 22086K   24169.62670674 -.00000096  00000-0  12090-4 0  9996,2 53251  53.2176 142.5851 0001406  93.7065 266.4088 15.08836968105766,6917.89,95.438,540.727,538.782,0.0
53251.0,STARLINK-4129,PAYLOAD,2024-06-18 06:56:19,15.08835357,0.0001362,53.2174,139.6114,99.655,260.4596,3.1148e-05,2.08e-06,0.0,0 STARLINK-4129,1 53251U 22086K   24170.28910882  .00000208  00000-0  31148-4 0  9997,2 53251  53.2174 139.6114 0001362  99.6550 260.4596 15.08835357106049,6917.895,95.438,540.702,538.817,0.0
53251.0,STARLINK-4129,PAYLOAD,2024-06-18 14:53:14,15.08842736,0.0001427,53.2182,138.1239,92.1796,267.936,2.9708e-05,1.85e-06,0.0,0 STARLINK-4129,1 53251U 22086K   24170.62030473  .00000185  00000-0  29708-4 0  9997,2 53251  53.2182 138.1239 0001427  92.1796 267.9360 15.08842736106097,6917.872,95.437,540.724,538.75,0.0
53251.0,STARLINK-4129,PAYLOAD,2024-06-19 05:11:43,15.088315,0.0001489,53.2173,135.448,92.6359,267.4803,2.6603e-05,1.35e-06,0.0,0 STARLINK-4129,1 53251U 22086K   24171.21647432  .00000135  00000-0  26603-4 0  9998,2 53251  53.2173 135.4480 0001489  92.6359 267.4803 15.08831500106008,6917.906,95.438,540.801,538.741,0.0
53251.0,STARLINK-4129,PAYLOAD,2024-06-19 06:47:06,15.08832953,0.0001533,53.217,135.1495,89.1127,271.0041,3.7274e-05,3.05e-06,0.0,0 STARLINK-4129,1 53251U 22086K   24171.28271333  .00000305  00000-0  37274-4 0  9993,2 53251  53.2170 135.1495 0001533  89.1127 271.0041 15.08832953106190,6917.902,95.438,540.827,538.706,0.0
53251.0,STARLINK-4129,PAYLOAD,2024-06-19 21:05:34,15.08840247,0.0001516,53.2167,132.4719,84.0696,276.0469,9.1716e-05,1.172e-05,0.0,0 STARLINK-4129,1 53251U 22086K   24171.87886685  .00001172  00000-0  91716-4 0  9994,2 53251  53.2167 132.4719 0001516  84.0696 276.0469 15.08840247106106,6917.88,95.438,540.793,538.696,0.0
53251.0,STARLINK-4129,PAYLOAD,2024-06-20 06:37:53,15.08840942,0.000144,53.2166,130.6882,86.1742,273.9414,4.7287e-05,4.65e-06,0.0,0 STARLINK-4129,1 53251U 22086K   24172.27630899  .00000465  00000-0  47287-4 0  9991,2 53251  53.2166 130.6882 0001440  86.1742 273.9414 15.08840942106341,6917.878,95.437,540.739,538.746,0.0
53251.0,STARLINK-4129,PAYLOAD,2024-06-21 03:17:54,15.08827126,0.0001502,53.2171,126.8231,83.3742,276.7421,0.00016799,2.386e-05,0.0,0 STARLINK-4129,1 53251U 22086K   24173.13743291  .00002386  00000-0  16799-3 0  9995,2 53251  53.2171 126.8231 0001502  83.3742 276.7421 15.08827126106292,6917.92,95.438,540.824,538.746,0.0
53251.0,STARLINK-4129,PAYLOAD,2024-06-21 06:28:40,15.08839932,0.0001485,53.2168,126.2277,86.6791,273.4371,4.412e-05,4.14e-06,0.0,0 STARLINK-4129,1 53251U 22086K   24173.26990999  .00000414  00000-0  44120-4 0  9998,2 53251  53.2168 126.2277 0001485  86.6791 273.4371 15.08839932106311,6917.881,95.438,540.773,538.718,0.0
53251.0,STARLINK-4129,PAYLOAD,2024-06-22 06:19:27,15.08838456,0.0001354,53.2164,121.7658,100.9455,259.169,-7.7361e-06,-4.11e-06,0.0,0 STARLINK-4129,1 53251U 22086K   24174.26351134 -.00000411  00000-0 -77361-5 0  9994,2 53251  53.2164 121.7658 0001354 100.9455 259.1690 15.08838456106643,6917.885,95.438,540.687,538.813,0.0
53251.0,STARLINK-4129,PAYLOAD,2024-06-23 01:24:04,15.08839021,0.0001379,53.2164,118.1977,108.473,251.6412,1.7879e-05,-3e-08,0.0,0 STARLINK-4129,1 53251U 22086K   24175.05839022 -.00000003  00000-0  17879-4 0  9992,2 53251  53.2164 118.1977 0001379 108.4730 251.6412 15.08839021106584,6917.883,95.438,540.702,538.794,0.0
53251.0,STARLINK-4129,PAYLOAD,2024-06-23 06:10:14,15.08839936,0.0001357,53.2162,117.3052,107.2897,252.8244,2.7762e-05,1.54e-06,0.0,0 STARLINK-4129,1 53251U 22086K   24175.25710930  .00000154  00000-0  27762-4 0  9998,2 53251  53.2162 117.3052 0001357 107.2897 252.8244 15.08839936106798,6917.881,95.438,540.684,538.807,0.0
53251.0,STARLINK-4129,PAYLOAD,2024-06-24 02:50:16,15.08835411,0.0001274,53.2163,113.4396,97.1941,262.9196,6.1631e-05,6.93e-06,0.0,0 STARLINK-4129,1 53251U 22086K   24176.11824413  .00000693  00000-0  61631-4 0  9997,2 53251  53.2163 113.4396 0001274  97.1941 262.9196 15.08835411106749,6917.894,95.438,540.641,538.878,0.0
53251.0,STARLINK-4129,PAYLOAD,2024-06-24 06:01:02,15.08839639,0.0001198,53.2162,112.8451,97.2613,262.8515,9.0548e-05,1.154e-05,0.0,0 STARLINK-4129,1 53251U 22086K   24176.25072118  .00001154  00000-0  90548-4 0  9991,2 53251  53.2162 112.8451 0001198  97.2613 262.8515 15.08839639106947,6917.881,95.438,540.575,538.918,0.0
53251.0,STARLINK-4129,PAYLOAD,2024-06-25 01:05:39,15.08846181,0.0001208,53.216,109.2759,85.6479,274.4651,0.00012148,1.646e-05,0.0,0 STARLINK-4129,1 53251U 22086K   24177.04559673  .00001646  00000-0  12148-3 0  9990,2 53251  53.2160 109.2759 0001208  85.6479 274.4651 15.08846181106882,6917.861,95.437,540.562,538.891,0.0
53251.0,STARLINK-4129,PAYLOAD,2024-06-26 02:31:49,15.08850686,0.0001237,53.2163,104.5181,81.1967,278.9165,4.7422e-05,4.67e-06,0.0,0 STARLINK-4129,1 53251U 22086K   24178.10543658  .00000467  00000-0  47422-4 0  9998,2 53251  53.2163 104.5181 0001237  81.1967 278.9165 15.08850686107040,6917.848,95.437,540.568,538.857,0.0
53251.0,STARLINK-4129,PAYLOAD,2024-06-27 02:22:37,15.08843913,0.0001529,53.2173,100.0525,70.0766,290.0391,-8.1151e-05,-1.579e-05,0.0,0 STARLINK-4129,1 53251U 22086K   24179.09904200 -.00001579  00000-0 -81151-4 0  9995,2 53251  53.2173 100.0525 0001529  70.0766 290.0391 15.08843913107199,6917.868,95.437,540.791,538.676,0.0
53251.0,STARLINK-4129,PAYLOAD,2024-06-28 11:45:41,15.08853723,0.0001268,53.2167,93.8123,94.4208,265.6929,7.9404e-05,9.76e-06,0.0,0 STARLINK-4129,1 53251U 22086K   24180.49006604  .00000976  00000-0  79404-4 0  9998,2 53251  53.2167  93.8123 0001268  94.4208 265.6929 15.08853723107405,6917.838,95.437,540.581,538.826,0.0
53251.0,STARLINK-4129,PAYLOAD,2024-06-28 22:53:24,15.08833033,0.0001132,53.2159,91.7282,96.2882,263.8239,0.0001329,1.828e-05,0.0,0 STARLINK-4129,1 53251U 22086K   24180.95375388  .00001828  00000-0  13290-3 0  9994,2 53251  53.2159  91.7282 0001132  96.2882 263.8239 15.08833033107650,6917.902,95.438,540.55,538.984,0.0
53251.0,STARLINK-4129,PAYLOAD,2024-06-29 00:28:47,15.08837934,0.0001275,53.2164,91.4335,97.9163,262.1973,2.39e-05,9.2e-07,0.0,0 STARLINK-4129,1 53251U 22086K   24181.01999698  .00000092  00000-0  23900-4 0  9990,2 53251  53.2164  91.4335 0001275  97.9163 262.1973 15.08837934107482,6917.887,95.438,540.634,538.87,0.0
53251.0,STARLINK-4129,PAYLOAD,2024-06-29 11:36:28,15.0885312,0.0001361,53.2166,89.356,83.114,277.0007,0.00014605,2.038e-05,0.0,0 STARLINK-4129,1 53251U 22086K   24181.48366224  .00002038  00000-0  14605-3 0  9997,2 53251  53.2166  89.3560 0001361  83.1140 277.0007 15.08853120107554,6917.84,95.437,540.647,538.764,0.0
53251.0,STARLINK-4129,PAYLOAD,2024-06-29 17:58:02,15.08838404,0.0002835,53.2149,88.1648,90.2874,269.8443,2.3096e-05,7.9e-07,0.0,0 STARLINK-4129,1 53251U 22086K   24181.74864012  .00000079  00000-0  23096-4 0  9992,2 53251  53.2149  88.1648 0002835  90.2874 269.8443 15.08838404107594,6917.885,95.438,541.711,537.789,0.0
53251.0,STARLINK-4129,PAYLOAD,2024-06-29 22:44:13,15.08813708,0.0001444,53.2164,87.2731,104.4203,255.695,-0.0002151,-3.707e-05,0.0,0 STARLINK-4129,1 53251U 22086K   24181.94738185 -.00003707  00000-0 -21510-3 0  9996,2 53251  53.2164  87.2731 0001444 104.4203 255.6950 15.08813708107803,6917.961,95.439,540.825,538.827,0.0
53251.0,STARLINK-4129,PAYLOAD,2024-06-30 03:30:22,15.08821194,0.0001325,53.217,86.3788,101.9,258.2141,-0.0001909,-3.323e-05,0.0,0 STARLINK-4129,1 53251U 22086K   24182.14609946 -.00003323  00000-0 -19090-3 0  9995,2 53251  53.2170  86.3788 0001325 101.9000 258.2141 15.08821194107659,6917.938,95.439,540.719,538.886,0.0
53251.0,STARLINK-4129,PAYLOAD,2024-06-30 20:59:36,15.08831413,0.0001084,53.2158,83.1141,78.0201,282.0912,2.7121e-05,1.44e-06,0.0,0 STARLINK-4129,1 53251U 22086K   24182.87472830  .00000144  00000-0  27121-4 0  9996,2 53251  53.2158  83.1141 0001084  78.0201 282.0912 15.08831413107760,6917.907,95.438,540.522,539.022,0.0
53251.0,STARLINK-4129,PAYLOAD,2024-06-30 22:34:59,15.08836742,0.0001434,53.2177,82.8122,87.2915,272.8241,4.2238e-05,3.84e-06,0.0,0 STARLINK-4129,1 53251U 22086K   24182.94096514  .00000384  00000-0  42238-4 0  9997,2 53251  53.2177  82.8122 0001434  87.2915 272.8241 15.08836742107952,6917.89,95.438,540.747,538.763,0.0
53251.0,STARLINK-4129,PAYLOAD,2024-07-01 00:10:21,15.08850825,0.0001359,53.2176,82.5143,103.4664,256.6479,0.00011975,1.619e-05,0.0,0 STARLINK-4129,1 53251U 22086K   24183.00719396  .00001619  00000-0  11975-3 0  9990,2 53251  53.2176  82.5143 0001359 103.4664 256.6479 15.08850825107781,6917.847,95.437,540.652,538.772,0.0
53251.0,STARLINK-4129,PAYLOAD,2024-07-01 20:50:24,15.08810891,0.0001317,53.2169,78.6496,100.6565,259.4576,0.00013083,1.793e-05,0.0,0 STARLINK-4129,1 53251U 22086K   24183.86833524  .00001793  00000-0  13083-3 0  9999,2 53251  53.2169  78.6496 0001317 100.6565 259.4576 15.08810891107916,6917.969,95.439,540.745,538.923,0.0
53251.0,STARLINK-4129,PAYLOAD,2024-07-01 22:25:47,15.08812738,0.0001319,53.2172,78.3527,99.4651,260.649,0.00014434,2.008e-05,0.0,0 STARLINK-4129,1 53251U 22086K   24183.93457414  .00002008  00000-0  14434-3 0  9998,2 53251  53.2172  78.3527 0001319  99.4651 260.6490 15.08812738108108,6917.964,95.439,540.741,538.916,0.0
